*******************************************************************************
Ephemeris / WWW_USER Mon Mar 24 09:04:05 2025 Pasadena, USA      / Horizons    
*******************************************************************************
Target body name: (2017 UX51)                     {source: JPL#22}
Center body name: Earth (399)                     {source: DE441}
Center-site name: Mauna Kea
*******************************************************************************
Start time      : A.D. 2018-Nov-11 03:53:00.0000 UT      
Stop  time      : A.D. 2018-Nov-11 16:18:00.0000 UT      
Step-size       : 1 minutes
*******************************************************************************
Target pole/equ : undefined
Target radii    : undefined                                                    
Center geodetic : 204.5278, 19.8260847, 4.21024   {E-lon(deg),Lat(deg),Alt(km)}
Center cylindric: 204.5278, 6006.35451, 2151.0229 {E-lon(deg),Dxy(km),Dz(km)}
Center pole/equ : ITRF93                          {East-longitude positive}
Center radii    : 6378.137, 6378.137, 6356.752 km {Equator_a, b, pole_c}       
Target primary  : Sun
Vis. interferer : MOON (R_eq= 1737.400) km        {source: DE441}
Rel. light bend : Sun                             {source: DE441}
Rel. lght bnd GM: 1.3271E+11 km^3/s^2                                          
Small-body perts: Yes                             {source: SB441-N16}
Atmos refraction: NO (AIRLESS)
RA format       : HMS
Time format     : CAL 
Calendar mode   : Mixed Julian/Gregorian
RTS-only print  : NO       
EOP file        : eop.250321.p250617                                           
EOP coverage    : DATA-BASED 1962-JAN-20 TO 2025-MAR-21. PREDICTS-> 2025-JUN-16
Units conversion: 1 au= 149597870.700 km, c= 299792.458 km/s, 1 day= 86400.0 s 
Table cut-offs 1: Elevation (-90.0deg=NO ),Airmass (>38.000=NO), Daylight (YES)
Table cut-offs 2: Solar elongation (  0.0,180.0=NO ),Local Hour Angle( 0.0=NO )
Table cut-offs 3: RA/DEC angular rate (     0.0=NO )                           
*******************************************************************************
Initial IAU76/J2000 heliocentric ecliptic osculating elements (au, days, deg.):
  EPOCH=  2458433.5 ! 2018-Nov-11.00 (TDB)         Residual RMS= .12444        
   EC= .7474905367293002   QR= 7.612253692784782   TP= 2459819.8104231078      
   OM= 217.7952286585891   W=  255.0338939179157   IN= 90.52400691057457       
  Equivalent ICRF heliocentric cartesian coordinates (au, au/d):
   X= 8.209785034050050E+00  Y= 6.297741083246843E+00  Z= 1.446459094674425E+00
  VX=-3.080259200599625E-03 VY=-2.498125597102637E-05 VZ=-6.110805734701701E-03
Asteroid physical parameters (km, seconds, rotational period in hours):        
   GM= n.a.                RAD= n.a.               ROTPER= n.a.                
   H= 11.                  G= .150                 B-V= n.a.                   
                           ALBEDO= n.a.            STYP= n.a.                  
*******************************************************************************
 Date__(UT)__HR:MN     R.A._________(ICRF)_________DEC
******************************************************
$$SOE
 2018-Nov-11 16:11 C   02 26 23.511787 +06 56 19.03644
 2018-Nov-11 16:12 C   02 26 23.497267 +06 56 18.87370
 2018-Nov-11 16:13 C   02 26 23.482748 +06 56 18.71095
 2018-Nov-11 16:14 C   02 26 23.468230 +06 56 18.54821
 2018-Nov-11 16:15 C   02 26 23.453713 +06 56 18.38546
 2018-Nov-11 16:16 C   02 26 23.439197 +06 56 18.22272
 2018-Nov-11 16:17 C   02 26 23.424683 +06 56 18.05998
 2018-Nov-11 16:18 C   02 26 23.410169 +06 56 17.89724
